MEAN_MOTION;ECCENTRICITY;INCLINATION;RA_OF_ASC_NODE;ARG_OF_PERICENTER;MEAN_ANOMALY;BSTAR;MEAN_MOTION_DOT;MEAN_MOTION_DDOT;TYPE
14.30300688;0.0004785;67.0544;251.5375;253.4199;106.6377;2.1716E-5;-2.6E-7;0;Amateur
14.3030074;0.0004761;67.0545;249.9144;253.5996;106.4582;1.7312E-5;-3.8E-7;0;Amateur
14.3030081;0.0004752;67.0545;248.8323;253.7017;106.3562;1.8133E-5;-3.6E-7;0;Amateur
14.30300861;0.0004727;67.0546;246.4878;254.0411;106.0169;1.201E-5;-5.2E-7;0;Amateur
14.303009;0.0004712;67.0547;244.8647;254.2074;105.8507;7.8832E-6;-6.2E-7;0;Amateur
14.30300913;0.0004705;67.0548;243.7826;254.3525;105.7057;8.2157E-6;-6.2E-7;0;Amateur
14.30300913;0.0004705;67.0548;243.7826;254.3525;105.7057;8.2157E-6;-6.2E-7;0;Amateur
14.30300933;0.0004688;67.0548;242.3399;254.5427;105.5157;6.2325E-6;-6.7E-7;0;Amateur
14.30300987;0.0004656;67.0549;238.9134;254.9249;105.1337;8.9514E-6;-6.0E-7;0;Amateur
14.30301062;0.0004633;67.055;236.2084;255.2513;104.8075;9.952E-6;-5.7E-7;0;Amateur
14.30301157;0.0004615;67.0551;233.6836;255.4965;104.5625;8.9081E-6;-6.0E-7;0;Amateur
14.30301178;0.0004608;67.0551;232.7819;255.6244;104.4346;7.2113E-6;-6.4E-7;0;Amateur
14.30301198;0.0004601;67.0552;231.1588;255.8168;104.2422;5.8316E-6;-6.8E-7;0;Amateur
14.30301242;0.0004592;67.0553;229.3554;256.0458;104.0133;4.9615E-6;-7.0E-7;0;Amateur
14.30301258;0.0004587;67.0553;228.4537;256.2027;103.8564;7.9122E-6;-6.2E-7;0;Amateur
14.30301313;0.0004584;67.0555;226.6504;256.3828;103.6763;1.1192E-5;-5.4E-7;0;Amateur
14.30301324;0.0004577;67.0555;226.1094;256.5092;103.5499;1.4015E-5;-4.6E-7;0;Amateur
14.30301421;0.0004561;67.0557;223.5847;256.7824;103.2769;2.126E-5;-2.8E-7;0;Amateur
14.30301495;0.0004546;67.0558;221.4206;256.9901;103.0692;2.2429E-5;-2.5E-7;0;Amateur
14.30301507;0.0004538;67.0559;220.8797;257.0973;102.9621;2.3021E-5;-2.3E-7;0;Amateur
14.30301594;0.0004517;67.056;218.896;257.2509;102.8088;2.0112E-5;-3.1E-7;0;Amateur
14.30301629;0.0004509;67.056;218.1747;257.3785;102.6812;1.9867E-5;-3.1E-7;0;Amateur
14.30301663;0.0004496;67.0561;216.1911;257.6227;102.4371;1.2558E-5;-5.0E-7;0;Amateur
14.30301687;0.000449;67.0562;215.6501;257.7237;102.3362;1.186E-5;-5.2E-7;0;Amateur
14.30301712;0.0004478;67.0562;213.8468;257.953;102.107;6.0838E-6;-6.7E-7;0;Amateur
14.30301723;0.0004474;67.0562;213.1255;257.9466;102.1134;6.6405E-6;-6.6E-7;0;Amateur
14.30301762;0.0004458;67.0563;210.601;258.2014;101.8587;6.526E-6;-6.6E-7;0;Amateur
14.30301828;0.0004457;67.0563;208.0764;258.6229;101.4372;1.0123E-5;-5.7E-7;0;Amateur
14.30301882;0.0004446;67.0564;206.0928;258.8514;101.2088;1.1982E-5;-5.2E-7;0;Amateur
14.30301885;0.0004443;67.0564;205.9125;258.8804;101.1797;1.2769E-5;-5.0E-7;0;Amateur
14.30301918;0.0004435;67.0564;205.0109;259.0477;101.0125;1.3007E-5;-4.9E-7;0;Amateur
14.30301958;0.0004429;67.0564;203.7486;259.0912;100.9691;1.2266E-5;-5.1E-7;0;Amateur
14.30302022;0.0004411;67.0564;201.0438;259.4321;100.6283;1.0688E-5;-5.5E-7;0;Amateur
14.30302029;0.0004408;67.0564;200.5028;259.5099;100.5506;1.1291E-5;-5.4E-7;0;Amateur
14.30302077;0.0004405;67.0564;198.3388;259.8247;100.2357;1.0402E-5;-5.6E-7;0;Amateur
14.3030208;0.0004404;67.0564;198.1585;259.8736;100.1869;1.0899E-5;-5.5E-7;0;Amateur
14.30302102;0.0004403;67.0564;197.7978;259.9896;100.0708;1.1723E-5;-5.2E-7;0;Amateur
14.30302151;0.0004404;67.0564;195.6339;260.3199;99.7405;1.4686E-5;-4.5E-7;0;Amateur
14.30302178;0.0004399;67.0564;195.0929;260.3843;99.6762;1.6293E-5;-4.1E-7;0;Amateur
14.30302267;0.000439;67.0565;192.5684;260.831;99.2295;2.257E-5;-2.4E-7;0;Amateur
14.30302349;0.0004382;67.0565;190.5849;261.0398;99.0207;2.5911E-5;-1.6E-7;0;Amateur
14.30302362;0.0004377;67.0565;190.4046;261.1055;98.9551;2.6434E-5;-1.4E-7;0;Amateur
14.30302469;0.0004367;67.0565;188.2407;261.386;98.6746;2.542E-5;-1.7E-7;0;Amateur
14.30302601;0.0004353;67.0564;185.5359;261.8181;98.2426;2.0758E-5;-2.9E-7;0;Amateur
14.3030269;0.0004342;67.0564;182.6507;262.3727;97.6881;1.2903E-5;-4.9E-7;0;Amateur
14.30302779;0.0004335;67.0563;179.9459;262.9097;97.1511;1.1355E-5;-5.3E-7;0;Amateur
14.30302873;0.0004339;67.0561;177.241;263.3407;96.72;1.5003E-5;-4.4E-7;0;Amateur
14.3030296;0.0004333;67.0559;174.7164;263.8396;96.2212;1.9167E-5;-3.3E-7;0;Amateur
14.30303028;0.0004323;67.0557;172.5525;264.0928;95.9681;2.0229E-5;-3.0E-7;0;Amateur
14.30303099;0.0004315;67.0555;169.8475;264.531;95.5299;1.7939E-5;-3.6E-7;0;Amateur
14.30303153;0.0004309;67.0554;167.1425;265.002;95.0589;1.4767E-5;-4.5E-7;0;Amateur
14.30303225;0.0004308;67.0553;164.6178;265.359;94.7019;1.6544E-5;-4.0E-7;0;Amateur
14.30303269;0.0004309;67.0552;162.2734;265.7578;94.303;1.9265E-5;-3.3E-7;0;Amateur
14.30303276;0.0004308;67.0552;162.0931;265.7797;94.2811;1.9634E-5;-3.2E-7;0;Amateur
14.30303343;0.0004303;67.0551;159.5683;266.2091;93.8518;2.2428E-5;-2.5E-7;0;Amateur
14.3030344;0.0004298;67.0549;157.0436;266.6041;93.4569;2.2095E-5;-2.5E-7;0;Amateur
14.30303506;0.0004294;67.0548;155.4206;266.8016;93.2594;1.7375E-5;-3.8E-7;0;Amateur
14.30303505;0.0004292;67.0548;154.5189;266.9512;93.1098;1.5368E-5;-4.3E-7;0;Amateur
14.30303548;0.0004289;67.0547;152.7155;267.2053;92.8558;7.9304E-6;-6.2E-7;0;Amateur
14.30303553;0.000429;67.0547;151.8139;267.3957;92.6653;6.5109E-6;-6.6E-7;0;Amateur
14.30303588;0.0004294;67.0545;149.2891;267.8282;92.2327;2.878E-6;-7.5E-7;0;Amateur
14.30303633;0.0004308;67.0544;146.9446;268.1663;91.8945;5.3684E-6;-6.9E-7;0;Amateur
14.3030363;0.0004301;67.0544;146.7643;268.1529;91.9079;5.2133E-6;-6.9E-7;0;Amateur
14.30303651;0.00043;67.0543;144.9609;268.4354;91.6255;6.8453E-6;-6.5E-7;0;Amateur
14.30303673;0.0004296;67.0543;144.4199;268.5228;91.5381;1.0203E-5;-5.6E-7;0;Amateur
14.30303734;0.0004292;67.0542;141.7148;269.0063;91.0547;1.5071E-5;-4.4E-7;0;Amateur
14.30303826;0.0004286;67.0541;139.1901;269.3923;90.6687;1.6085E-5;-4.1E-7;0;Amateur
14.3030388;0.0004287;67.0541;137.3866;269.7263;90.3347;1.297E-5;-4.9E-7;0;Amateur
14.30303903;0.0004291;67.0541;136.4848;270.0699;89.991;1.4022E-5;-4.6E-7;0;Amateur
14.30303943;0.0004294;67.0541;134.6813;270.3852;89.6757;1.1473E-5;-5.3E-7;0;Amateur
14.30303957;0.0004294;67.0541;134.1403;270.5333;89.5276;1.2758E-5;-5.0E-7;0;Amateur
14.30304043;0.0004299;67.0541;131.4351;270.9397;89.1212;1.5725E-5;-4.2E-7;0;Amateur
14.30304087;0.0004301;67.0541;130.1727;271.1033;88.9576;1.6945E-5;-3.9E-7;0;Amateur
14.30304099;0.0004303;67.0541;128.9103;271.3361;88.7247;1.8094E-5;-3.6E-7;0;Amateur
14.30304151;0.0004303;67.0541;126.9265;271.5623;88.4986;1.7558E-5;-3.7E-7;0;Amateur
14.30304198;0.0004302;67.0541;126.2051;271.7412;88.3196;1.906E-5;-3.3E-7;0;Amateur
14.30304225;0.0004302;67.0542;125.8445;271.8435;88.2174;1.865E-5;-3.4E-7;0;Amateur
14.30304289;0.0004301;67.0542;123.8606;272.1417;87.9191;1.5857E-5;-4.2E-7;0;Amateur
14.30304368;0.0004305;67.0542;121.1555;272.5848;87.4761;8.3281E-6;-6.1E-7;0;Amateur
14.30304412;0.0004313;67.0543;118.6306;273.0393;87.0214;2.7811E-6;-7.6E-7;0;Amateur
14.30304427;0.0004322;67.0544;116.6468;273.3438;86.7169;1.1837E-6;-8.0E-7;0;Amateur
14.30304439;0.000432;67.0544;114.8434;273.6965;86.3642;2.6611E-6;-7.6E-7;0;Amateur
14.30304436;0.0004324;67.0545;113.5809;273.9108;86.1499;5.19E-6;-6.9E-7;0;Amateur
14.30304503;0.0004321;67.0545;111.0561;274.3389;85.7219;1.1376E-5;-5.3E-7;0;Amateur
14.30304567;0.000433;67.0546;109.0723;274.5571;85.5036;1.3188E-5;-4.9E-7;0;Amateur
14.30304602;0.0004315;67.0546;108.5312;274.6881;85.3728;1.5468E-5;-4.3E-7;0;Amateur
14.30304678;0.000432;67.0548;106.3671;275.0174;85.0434;1.4516E-5;-4.5E-7;0;Amateur
14.30304724;0.0004315;67.0548;105.8261;275.1551;84.9058;1.5644E-5;-4.2E-7;0;Amateur
14.30304845;0.0004329;67.055;103.3013;275.605;84.4557;1.5458E-5;-4.3E-7;0;Amateur
14.30304906;0.0004341;67.0552;100.7766;275.9568;84.1039;1.4125E-5;-4.6E-7;0;Amateur
14.3030497;0.0004353;67.0554;98.6126;276.2854;83.7751;1.5927E-5;-4.2E-7;0;Amateur
14.30304989;0.0004353;67.0555;98.2519;276.3809;83.6796;1.6823E-5;-3.9E-7;0;Amateur
14.30305086;0.0004363;67.0556;95.9074;276.7654;83.295;1.9006E-5;-3.3E-7;0;Amateur
14.30305232;0.0004358;67.0559;92.6615;277.2539;82.8067;1.6798E-5;-3.9E-7;0;Amateur
14.30305271;0.0004358;67.0559;91.5795;277.3653;82.6953;1.3271E-5;-4.8E-7;0;Amateur
14.30305356;0.0004371;67.0561;89.0548;277.8894;82.1711;7.1944E-6;-6.4E-7;0;Amateur
14.30305373;0.0004376;67.0562;88.3334;278.0476;82.0129;7.2504E-6;-6.4E-7;0;Amateur
14.30305417;0.0004382;67.0562;86.3497;278.248;81.8124;3.4593E-6;-7.4E-7;0;Amateur
14.30305435;0.0004387;67.0563;85.6284;278.3202;81.7401;5.642E-6;-6.8E-7;0;Amateur
14.30305472;0.0004393;67.0564;83.8251;278.5459;81.5144;5.8362E-6;-6.8E-7;0;Amateur
14.30305501;0.0004398;67.0565;82.9234;278.7307;81.3296;1.0041E-5;-5.7E-7;0;Amateur
14.30305541;0.0004403;67.0565;81.3004;278.9436;81.1167;1.2023E-5;-5.2E-7;0;Amateur
14.30305568;0.0004408;67.0566;80.2184;279.0955;80.9647;1.6463E-5;-4.0E-7;0;Amateur
14.30305618;0.0004411;67.0567;78.7758;279.2473;80.8129;1.7413E-5;-3.8E-7;0;Amateur
14.30305663;0.0004424;67.0567;77.3331;279.5555;80.5046;1.9617E-5;-3.2E-7;0;Amateur
14.30305786;0.0004432;67.0569;73.7265;280.0436;80.0165;1.5407E-5;-4.3E-7;0;Amateur
14.30305787;0.0004433;67.057;73.5462;280.0544;80.0056;1.4814E-5;-4.4E-7;0;Amateur
14.30305795;0.0004451;67.0571;71.0216;280.3561;79.7038;8.4464E-6;-6.1E-7;0;Amateur
14.30305809;0.0004456;67.0571;70.3003;280.4995;79.5604;9.7853E-6;-5.7E-7;0;Amateur
14.30305841;0.0004469;67.0572;68.3167;280.7075;79.3523;8.0444E-6;-6.2E-7;0;Amateur
14.30305874;0.0004473;67.0573;65.9726;281.0855;78.9743;8.8625E-6;-6.0E-7;0;Amateur
14.30305945;0.0004484;67.0574;63.2677;281.3902;78.6695;1.1365E-5;-5.3E-7;0;Amateur
14.30305978;0.0004489;67.0574;62.5465;281.5356;78.5241;1.3511E-5;-4.8E-7;0;Amateur
14.30306042;0.0004483;67.0574;61.1039;281.5987;78.4611;1.2637E-5;-5.0E-7;0;Amateur
14.30306075;0.0004492;67.0574;59.8417;281.7696;78.2901;1.1739E-5;-5.2E-7;0;Amateur
14.30306128;0.0004517;67.0574;58.0384;281.9585;78.101;7.7853E-6;-6.3E-7;0;Amateur
14.30306175;0.0004531;67.0575;55.6942;282.3382;77.7212;3.8373E-6;-7.3E-7;0;Amateur
14.3030617;0.0004534;67.0575;55.5138;282.3382;77.7211;3.8974E-6;-7.3E-7;0;Amateur
